NAVSTAR 77 (USA 289)    
1 43873U 18109A   23289.75602856  .00000070  00000+0  00000+0 0  9992
2 43873  55.2074 130.6888 0026556 189.7553 146.6407  2.00570398 35523
